KUIPER-00071            
1 64818U 25151C   26014.76698571  .00001595  00000+0  23833-3 0  9994
2 64818  51.8993 181.5218 0007578  62.3976 297.7755 14.79926411 27285
KUIPER-00072            
1 64819U 25151D   26014.68797042  .00002154  00000+0  29989-3 0  9999
2 64819  51.8974 161.8779 0000808  90.5544 269.5512 14.81577970 27554
KUIPER-00073            
1 64820U 25151E   26014.73351200  .00001640  00000+0  24426-3 0  9999
2 64820  51.8996 181.6677 0013501  79.3417 280.9065 14.79919028 28467
KUIPER-00074            
1 64821U 25151F   26014.81457219 -.00002235  00000+0 -26346-3 0  9992
2 64821  51.8997 168.8271 0013391  93.4851 266.7643 14.79913892 27468
KUIPER-00075            
1 64822U 25151G   26014.55008953  .00020622  00000+0  52433-3 0  9995
2 64822  51.8721 124.9015 0003451 108.0495 252.0869 15.39576990 28051
KUIPER-00076            
1 64823U 25151H   26014.81173203  .00000911  00000+0  14857-3 0  9993
2 64823  51.8988 171.3322 0005288  91.0599 269.0969 14.79943456 27438
KUIPER-00077            
1 64824U 25151J   26014.73889236  .00001847  00000+0  27124-3 0  9995
2 64824  51.9000 176.6627 0006501  65.9640 294.2002 14.79942339 27355
KUIPER-00078            
1 64825U 25151K   26014.84288336  .00001882  00000+0  27597-3 0  9995
2 64825  51.8981 173.6954 0003613 125.8730 234.2568 14.79929074 27408
